LEMUR-2-MANGO2B
1 58337U 23174CK  24002.89058357  .00025767  00000-0  12735-2 0  9993
2 58337  97.4784  80.1144 0011769  71.0174 289.2334 15.17765548  8502
